     3.02           N: GNSS NAV DATA    G: GPS              RINEX VERSION / TYPE
GR25 V4.30          IGN                 20190302 125942 UTC PGM / RUN BY / DATE
GPSA   1.0245D-08  0.0000D+00 -5.9605D-08  0.0000D+00       IONOSPHERIC CORR
GPSB   9.0112D+04  0.0000D+00 -1.9661D+05  0.0000D+00       IONOSPHERIC CORR
GPUT  1.8626451492D-09 8.881784197D-15 147456 2043          TIME SYSTEM CORR
    18    18  1929     7                                    LEAP SECONDS
                                                            END OF HEADER
G17 2019 03 02 08 00 00 1.731840893626D-05 5.684341886081D-12 0.000000000000D+00
     9.200000000000D+01 5.059375000000D+01 4.251605667870D-09 2.338379928167D-01
     2.458691596985D-06 1.294106640853D-02 3.643333911896D-06 5.153700941086D+03
     5.472000000000D+05-2.309679985046D-07-2.353539881972D+00-7.450580596924D-09
     9.839381709857D-01 3.218750000000D+02-1.718264433502D+00-8.341418882150D-09
     2.339383158984D-10 1.000000000000D+00 2.042000000000D+03 0.000000000000D+00
     2.800000000000D+00 0.000000000000D+00-1.117587089539D-08 9.200000000000D+01
     5.400000000000D+05                   
G18 2019 03 02 02 00 00 3.087194636464D-05 3.637978807092D-12 0.000000000000D+00
     3.900000000000D+01-8.153125000000D+01 4.954492088768D-09 1.011157574406D+00
    -4.401430487633D-06 1.507052010857D-02 4.524365067482D-06 5.153729415894D+03
     5.256000000000D+05-2.533197402954D-07-1.406320097505D+00-7.636845111847D-08
     9.527801137218D-01 2.931250000000D+02 1.377320308154D+00-8.608930025062D-09
    -2.589393572922D-10 1.000000000000D+00 2.042000000000D+03 0.000000000000D+00
     2.000000000000D+00 0.000000000000D+00-6.053596735001D-09 3.900000000000D+01
     5.184000000000D+05                   
G19 2019 03 02 08 00 00-3.468911163509D-04 4.206412995700D-12 0.000000000000D+00
     2.900000000000D+01 4.943750000000D+01 4.249819879199D-09 3.039460221627D+00
     2.382323145866D-06 9.417343651876D-03 3.064051270485D-06 5.153625753403D+03
     5.472000000000D+05 9.872019290924D-08-2.307121024646D+00-1.043081283569D-07
     9.816666585852D-01 3.307187500000D+02 1.351666572327D+00-8.013190924423D-09
     2.517962026082D-10 1.000000000000D+00 2.042000000000D+03 0.000000000000D+00
     2.000000000000D+00 0.000000000000D+00-1.536682248116D-08 2.900000000000D+01
     5.400000000000D+05                   
G20 2019 03 02 14 00 00 5.227164365351D-04 3.410605131648D-13 0.000000000000D+00
     2.100000000000D+01-7.456250000000D+01 5.048067415127D-09 9.391355543312D-01
    -3.879889845848D-06 4.384506377392D-03 1.039169728756D-05 5.153679740906D+03
     5.688000000000D+05 3.725290298462D-08-4.295329875445D-01-5.401670932770D-08
     9.304218627309D-01 1.625625000000D+02 2.298250499450D+00-8.214627886510D-09
     2.000083311498D-10 1.000000000000D+00 2.042000000000D+03 0.000000000000D+00
     2.000000000000D+00 0.000000000000D+00-8.381903171539D-09 2.100000000000D+01
     5.616000000000D+05                   
G21 2019 03 02 13 59 44-2.402737736702D-04 7.275957614183D-12 0.000000000000D+00
     4.000000000000D+00-7.784375000000D+01 5.034495421228D-09-5.098316743871D-01
    -4.062429070473D-06 2.478148567025D-02 4.522502422333D-06 5.153783161163D+03
     5.687840000000D+05-3.464519977570D-07-1.415352291241D+00 1.732259988785D-07
     9.470834726853D-01 2.908125000000D+02-1.470705503805D+00-8.909299679521D-09
     5.143071372424D-11 1.000000000000D+00 2.042000000000D+03 0.000000000000D+00
     2.000000000000D+00 0.000000000000D+00-1.024454832077D-08 4.000000000000D+00
     5.616000000000D+05                   
G22 2019 03 02 04 00 00-6.557907909155D-04-7.844391802792D-12 0.000000000000D+00
     3.800000000000D+01-6.312500000000D+01 4.984850496175D-09-2.578689993452D+00
    -3.250315785408D-06 7.229116279632D-03 1.003034412861D-05 5.153572536469D+03
     5.328000000000D+05 6.519258022308D-08-3.802874477215D-01 1.061707735062D-07
     9.271692018960D-01 1.639062500000D+02-1.411581109333D+00-8.049263855577D-09
     1.517920370333D-10 1.000000000000D+00 2.042000000000D+03 0.000000000000D+00
     2.000000000000D+00 0.000000000000D+00-1.816079020500D-08 3.800000000000D+01
     5.256000000000D+05                   
G23 2019 03 02 05 59 44-1.954981125891D-04 1.364242052659D-12 0.000000000000D+00
     3.200000000000D+01 2.168750000000D+01 5.019137638658D-09-2.178975349127D+00
     9.424984455109D-07 1.285413617734D-02 6.562098860741D-06 5.153625009537D+03
     5.399840000000D+05 1.005828380585D-07 7.173314890615D-01-1.136213541031D-07
     9.434853964110D-01 2.409687500000D+02-2.293528321312D+00-8.019619763639D-09
     3.496574217780D-10 1.000000000000D+00 2.042000000000D+03 0.000000000000D+00
     2.000000000000D+00 0.000000000000D+00-2.002343535423D-08 3.200000000000D+01
     5.328000000000D+05                   
G24 2019 03 02 14 00 00-6.285356357694D-05-5.684341886081D-13 0.000000000000D+00
     1.700000000000D+01-7.687500000000D+00 5.359508959346D-09 1.551380480973D+00
    -3.222376108170D-07 8.222651784308D-03 6.636604666710D-06 5.153721548080D+03
     5.688000000000D+05-1.098960638046D-07 1.733646102782D+00 1.601874828339D-07
     9.388812742994D-01 2.417812500000D+02 5.985198657948D-01-8.437137154914D-09
    -4.693052627337D-10 1.000000000000D+00 2.042000000000D+03 0.000000000000D+00
     2.800000000000D+00 0.000000000000D+00 2.793967723846D-09 1.700000000000D+01
     5.616000000000D+05                   
G25 2019 03 02 14 00 00-7.276795804501D-04-5.229594535194D-12 0.000000000000D+00
     6.200000000000D+01 6.884375000000D+01 4.070883854367D-09-3.947600655584D-01
     3.548339009285D-06 8.283121511340D-03 9.778887033463D-06 5.153753181458D+03
     5.688000000000D+05 2.235174179077D-08 2.833340444871D+00 1.322478055954D-07
     9.714453904055D-01 1.955000000000D+02 8.617281817062D-01-7.911043812443D-09
    -2.389385241772D-10 1.000000000000D+00 2.042000000000D+03 0.000000000000D+00
     2.000000000000D+00 0.000000000000D+00 5.587935447693D-09 6.200000000000D+01
     5.616000000000D+05                   
G26 2019 03 01 22 00 00 1.378497108817D-04 1.023181539495D-11 0.000000000000D+00
     2.800000000000D+01 6.071875000000D+01 4.596977196838D-09 3.094859107956D+00
     3.211200237274D-06 3.688303870149D-03 9.659677743912D-06 5.153567369461D+03
     5.112000000000D+05-5.960464477539D-08 2.806824279338D+00-2.048909664154D-08
     9.527778198663D-01 1.900625000000D+02 1.197422483624D-01-7.933544749698D-09
    -9.857553463812D-11 1.000000000000D+00 2.042000000000D+03 0.000000000000D+00
     2.000000000000D+00 0.000000000000D+00 7.450580596924D-09 2.800000000000D+01
     5.040000000000D+05                   
G27 2019 03 02 00 00 00-7.751397788525D-05-7.730704965070D-12 0.000000000000D+00
     9.300000000000D+01 6.153125000000D+01 4.333751946735D-09 2.373539031268D+00
     3.134831786156D-06 6.771380081773D-03 3.956258296967D-06 5.153636096954D+03
     5.184000000000D+05-1.527369022369D-07-2.408948920952D+00-1.303851604462D-08
     9.784967389339D-01 3.128750000000D+02 4.360071592997D-01-8.049978171046D-09
     1.896507568581D-10 1.000000000000D+00 2.042000000000D+03 0.000000000000D+00
     2.000000000000D+00 0.000000000000D+00 1.396983861923D-09 9.300000000000D+01
     5.112000000000D+05                   
G28 2019 03 02 06 00 00 7.655979134142D-04 7.958078640513D-13 0.000000000000D+00
     7.000000000000D+00 6.546875000000D+01 3.842302904481D-09 6.726697601955D-02
     3.326684236526D-06 1.922341983300D-02 1.004151999950D-05 5.153705982208D+03
     5.400000000000D+05-3.110617399216D-07 2.919684299816D+00-1.043081283569D-07
     9.833187392867D-01 2.008750000000D+02-1.471283030215D+00-8.009976504816D-09
     1.285767843106D-11 1.000000000000D+00 2.042000000000D+03 0.000000000000D+00
     2.000000000000D+00 0.000000000000D+00-1.117587089539D-08 7.000000000000D+00
     5.328000000000D+05                   
G29 2019 03 02 14 00 00 2.586706541479D-04-8.753886504564D-12 0.000000000000D+00
     7.000000000000D+01 5.500000000000D+01 4.075169747177D-09-2.017353016999D+00
     2.859160304070D-06 7.543740794063D-04 3.470107913017D-06 5.153556394577D+03
     5.688000000000D+05 1.862645149231D-08-2.342709138713D+00-3.166496753693D-08
     9.853577296360D-01 3.262500000000D+02 1.446956984709D+00-8.065693111350D-09
     1.946509651369D-10 1.000000000000D+00 2.042000000000D+03 0.000000000000D+00
     2.800000000000D+00 0.000000000000D+00-1.024454832077D-08 7.000000000000D+01
     5.616000000000D+05                   
G30 2019 03 02 10 00 00-6.141373887658D-05-6.480149750132D-12 0.000000000000D+00
     9.200000000000D+01-6.906250000000D+00 5.027709424278D-09-1.443424894818D+00
    -4.861503839493D-07 3.696829313412D-03 7.046386599541D-06 5.153614847183D+03
     5.544000000000D+05-5.587935447693D-09 1.827765604311D+00-7.264316082001D-08
     9.412548091438D-01 2.334687500000D+02-3.020029057590D+00-8.190341160585D-09
    -4.425184326689D-10 1.000000000000D+00 2.042000000000D+03 0.000000000000D+00
     2.000000000000D+00 0.000000000000D+00 3.725290298462D-09 9.200000000000D+01
     5.472000000000D+05                   
G31 2019 03 02 14 00 00 5.499599501491D-05-2.728484105319D-12 0.000000000000D+00
     2.600000000000D+01-1.121875000000D+01 4.824843831255D-09 2.440532761986D-01
    -6.556510925293D-07 9.255715529434D-03 6.759539246559D-06 5.153564294815D+03
     5.688000000000D+05 1.490116119385D-07 1.811880676583D+00-2.980232238770D-08
     9.603246470448D-01 2.465625000000D+02-1.000956052694D-02-8.221771041194D-09
    -5.039495629507D-10 1.000000000000D+00 2.042000000000D+03 0.000000000000D+00
     2.000000000000D+00 0.000000000000D+00-1.350417733192D-08 2.600000000000D+01
     5.616000000000D+05                   
